{"type": "FeatureCollection", "features": [ {"type": "Feature", "properties": {"norad_id": 66561, "name": "STARLINK-35305", "group": "last-30-days", "lat": -26.355685321826417, "lon": 34.325425722447896, "alt_km": 339.15298970091044, "timestamp": "2025-12-02T10:50:46.053299+00:00", "meta": {"OBJECT_NAME": "STARLINK-35305", "OBJECT_ID": "2025-268E", "EPOCH": "2025-12-02T04:00:03.998880", "MEAN_MOTION": 15.78552047, "ECCENTRICITY": 0.0001806, "INCLINATION": 42.997, "RA_OF_ASC_NODE": 183.9409, "ARG_OF_PERICENTER": 279.3191, "MEAN_ANOMALY": 119.0046, "EPHEMERIS_TYPE": 0, "CLASSIFICATION_TYPE": "U", "NORAD_CAT_ID": 66561, "ELEMENT_SET_NO": 999, "REV_AT_EPOCH": 292, "BSTAR": -0.0098702, "MEAN_MOTION_DOT": -0.01553659, "MEAN_MOTION_DDOT": 0}, "tle": {"line1": "1 66561U 25268E   25336.16671295 -.01553659  00000+0 -98702-2 0  9996", "line2": "2 66561  42.9970 183.9409 0001806 279.3191 119.0046 15.78552047  2926"}}, "geometry": {"type": "Point", "coordinates": [34.325425722447896, -26.355685321826417]}}, {"type": "Feature", "properties": {"norad_id": 66562, "name": "STARLINK-35579", "group": "last-30-days", "lat": -25.205547902531897, "lon": 32.54970566217681, "alt_km": 338.9661423829066, "timestamp": "2025-12-02T10:50:46.053311+00:00", "meta": {"OBJECT_NAME": "STARLINK-35579", "OBJECT_ID": "2025-268F", "EPOCH": "2025-12-02T04:00:03.998880", "MEAN_MOTION": 15.78569567, "ECCENTRICITY": 0.0001881, "INCLINATION": 42.9969, "RA_OF_ASC_NODE": 183.9457, "ARG_OF_PERICENTER": 276.0311, "MEAN_ANOMALY": 120.301, "EPHEMERIS_TYPE": 0, "CLASSIFICATION_TYPE": "U", "NORAD_CAT_ID": 66562, "ELEMENT_SET_NO": 999, "REV_AT_EPOCH": 297, "BSTAR": -0.0098811, "MEAN_MOTION_DOT": -0.01556303, "MEAN_MOTION_DDOT": 0}, "tle": {"line1": "1 66562U 25268F   25336.16671295 -.01556303  00000+0 -98811-2 0  9997", "line2": "2 66562  42.9969 183.9457 0001881 276.0311 120.3010 15.78569567  2975"}}, "geometry": {"type": "Point", "coordinates": [32.54970566217681, -25.205547902531897]}}, {"type": "Feature", "properties": {"norad_id": 66563, "name": "STARLINK-35437", "group": "last-30-days", "lat": -27.519674721323653, "lon": 36.19589383689445, "alt_km": 339.1642110413368, "timestamp": "2025-12-02T10:50:46.053321+00:00", "meta": {"OBJECT_NAME": "STARLINK-35437", "OBJECT_ID": "2025-268G", "EPOCH": "2025-12-02T04:00:03.998880", "MEAN_MOTION": 15.78527328, "ECCENTRICITY": 0.0001783, "INCLINATION": 42.9968, "RA_OF_ASC_NODE": 183.9353, "ARG_OF_PERICENTER": 272.6332, "MEAN_ANOMALY": 127.7597, "EPHEMERIS_TYPE": 0, "CLASSIFICATION_TYPE": "U", "NORAD_CAT_ID": 66563, "ELEMENT_SET_NO": 999, "REV_AT_EPOCH": 297, "BSTAR": -0.010007, "MEAN_MOTION_DOT": -0.015709, "MEAN_MOTION_DDOT": 0}, "tle": {"line1": "1 66563U 25268G   25336.16671295 -.01570900  00000+0 -10007-1 0  9997", "line2": "2 66563  42.9968 183.9353 0001783 272.6332 127.7597 15.78527328  2976"}}, "geometry": {"type": "Point", "coordinates": [36.19589383689445, -27.519674721323653]}}, {"type": "Feature", "properties": {"norad_id": 66564, "name": "STARLINK-35358", "group": "last-30-days", "lat": -28.61179026387106, "lon": 38.027386190818234, "alt_km": 339.2717336761634, "timestamp": "2025-12-02T10:50:46.053333+00:00", "meta": {"OBJECT_NAME": "STARLINK-35358", "OBJECT_ID": "2025-268H", "EPOCH": "2025-12-02T04:00:03.998880", "MEAN_MOTION": 15.78516648, "ECCENTRICITY": 0.0001893, "INCLINATION": 42.9967, "RA_OF_ASC_NODE": 183.9306, "ARG_OF_PERICENTER": 277.096, "MEAN_ANOMALY": 125.2642, "EPHEMERIS_TYPE": 0, "CLASSIFICATION_TYPE": "U", "NORAD_CAT_ID": 66564, "ELEMENT_SET_NO": 999, "REV_AT_EPOCH": 292, "BSTAR": -0.0099851, "MEAN_MOTION_DOT": -0.01567291, "MEAN_MOTION_DDOT": 0}, "tle": {"line1": "1 66564U 25268H   25336.16671295 -.01567291  00000+0 -99851-2 0  9992", "line2": "2 66564  42.9967 183.9306 0001893 277.0960 125.2642 15.78516648  2924"}}, "geometry": {"type": "Point", "coordinates": [38.027386190818234, -28.61179026387106]}}, {"type": "Feature", "properties": {"norad_id": 66565, "name": "STARLINK-35893", "group": "last-30-days", "lat": -29.693307450462108, "lon": 39.922338084857294, "alt_km": 339.3637323140638, "timestamp": "2025-12-02T10:50:46.053343+00:00", "meta": {"OBJECT_NAME": "STARLINK-35893", "OBJECT_ID": "2025-268J", "EPOCH": "2025-12-02T04:00:03.998880", "MEAN_MOTION": 15.7849766, "ECCENTRICITY": 0.0001855, "INCLINATION": 42.9969, "RA_OF_ASC_NODE": 183.9253, "ARG_OF_PERICENTER": 276.2704, "MEAN_ANOMALY": 128.0929, "EPHEMERIS_TYPE": 0, "CLASSIFICATION_TYPE": "U", "NORAD_CAT_ID": 66565, "ELEMENT_SET_NO": 999, "REV_AT_EPOCH": 297, "BSTAR": -0.010027, "MEAN_MOTION_DOT": -0.01571801, "MEAN_MOTION_DDOT": 0}, "tle": {"line1": "1 66565U 25268J   25336.16671295 -.01571801  00000+0 -10027-1 0  9992", "line2": "2 66565  42.9969 183.9253 0001855 276.2704 128.0929 15.78497660  2979"}}, "geometry": {"type": "Point", "coordinates": [39.922338084857294, -29.693307450462108]}}, {"type": "Feature", "properties": {"norad_id": 66566, "name": "STARLINK-35871", "group": "last-30-days", "lat": -30.811072917683482, "lon": 41.97910194330348, "alt_km": 339.6008453714421, "timestamp": "2025-12-02T10:50:46.053353+00:00", "meta": {"OBJECT_NAME": "STARLINK-35871", "OBJECT_ID": "2025-268K", "EPOCH": "2025-12-02T04:00:03.998880", "MEAN_MOTION": 15.78441374, "ECCENTRICITY": 0.0001854, "INCLINATION": 42.9971, "RA_OF_ASC_NODE": 183.92, "ARG_OF_PERICENTER": 277.4373, "MEAN_ANOMALY": 129.0932, "EPHEMERIS_TYPE": 0, "CLASSIFICATION_TYPE": "U", "NORAD_CAT_ID": 66566, "ELEMENT_SET_NO": 999, "REV_AT_EPOCH": 297, "BSTAR": -0.010138, "MEAN_MOTION_DOT": -0.01583342, "MEAN_MOTION_DDOT": 0}, "tle": {"line1": "1 66566U 25268K   25336.16671295 -.01583342  00000+0 -10138-1 0  9999", "line2": "2 66566  42.9971 183.9200 0001854 277.4373 129.0932 15.78441374  2975"}}, "geometry": {"type": "Point", "coordinates": [41.97910194330348, -30.811072917683482]}}, {"type": "Feature", "properties": {"norad_id": 66567, "name": "STARLINK-35825", "group": "last-30-days", "lat": -31.867381232284302, "lon": 44.027890750963564, "alt_km": 339.7072877622413, "timestamp": "2025-12-02T10:50:46.053363+00:00", "meta": {"OBJECT_NAME": "STARLINK-35825", "OBJECT_ID": "2025-268L", "EPOCH": "2025-12-02T04:00:03.998880", "MEAN_MOTION": 15.78402143, "ECCENTRICITY": 0.0001818, "INCLINATION": 42.9972, "RA_OF_ASC_NODE": 183.9149, "ARG_OF_PERICENTER": 274.2467, "MEAN_ANOMALY": 134.3752, "EPHEMERIS_TYPE": 0, "CLASSIFICATION_TYPE": "U", "NORAD_CAT_ID": 66567, "ELEMENT_SET_NO": 999, "REV_AT_EPOCH": 297, "BSTAR": -0.010212, "MEAN_MOTION_DOT": -0.01590979, "MEAN_MOTION_DDOT": 0}, "tle": {"line1": "1 66567U 25268L   25336.16671295 -.01590979  00000+0 -10212-1 0  9997", "line2": "2 66567  42.9972 183.9149 0001818 274.2467 134.3752 15.78402143  2978"}}, "geometry": {"type": "Point", "coordinates": [44.027890750963564, -31.867381232284302]}}, {"type": "Feature", "properties": {"norad_id": 66568, "name": "STARLINK-35803", "group": "last-30-days", "lat": -32.921379194281265, "lon": 46.190358431189594, "alt_km": 340.38511826082595, "timestamp": "2025-12-02T10:50:46.053373+00:00", "meta": {"OBJECT_NAME": "STARLINK-35803", "OBJECT_ID": "2025-268M", "EPOCH": "2025-12-02T04:00:03.998880", "MEAN_MOTION": 15.78402418, "ECCENTRICITY": 0.0001592, "INCLINATION": 42.9969, "RA_OF_ASC_NODE": 183.9093, "ARG_OF_PERICENTER": 289.2245, "MEAN_ANOMALY": 121.5629, "EPHEMERIS_TYPE": 0, "CLASSIFICATION_TYPE": "U", "NORAD_CAT_ID": 66568, "ELEMENT_SET_NO": 999, "REV_AT_EPOCH": 297, "BSTAR": -0.011195, "MEAN_MOTION_DOT": -0.01759362, "MEAN_MOTION_DDOT": 0}, "tle": {"line1": "1 66568U 25268M   25336.16671295 -.01759362  00000+0 -11195-1 0  9992", "line2": "2 66568  42.9969 183.9093 0001592 289.2245 121.5629 15.78402418  2978"}}, "geometry": {"type": "Point", "coordinates": [46.190358431189594, -32.921379194281265]}}, {"type": "Feature", "properties": {"norad_id": 66569, "name": "STARLINK-35835", "group": "last-30-days", "lat": -33.85759047388041, "lon": 48.22517437943673, "alt_km": 340.13173520262535, "timestamp": "2025-12-02T10:50:46.053383+00:00", "meta": {"OBJECT_NAME": "STARLINK-35835", "OBJECT_ID": "2025-268N", "EPOCH": "2025-12-02T04:00:03.998880", "MEAN_MOTION": 15.78330589, "ECCENTRICITY": 0.0001788, "INCLINATION": 42.997, "RA_OF_ASC_NODE": 183.9043, "ARG_OF_PERICENTER": 281.3102, "MEAN_ANOMALY": 131.4524, "EPHEMERIS_TYPE": 0, "CLASSIFICATION_TYPE": "U", "NORAD_CAT_ID": 66569, "ELEMENT_SET_NO": 999, "REV_AT_EPOCH": 297, "BSTAR": -0.010357, "MEAN_MOTION_DOT": -0.01605987, "MEAN_MOTION_DDOT": 0}, "tle": {"line1": "1 66569U 25268N   25336.16671295 -.01605987  00000+0 -10357-1 0  9995", "line2": "2 66569  42.9970 183.9043 0001788 281.3102 131.4524 15.78330589  2971"}}, "geometry": {"type": "Point", "coordinates": [48.22517437943673, -33.85759047388041]}}, {"type": "Feature", "properties": {"norad_id": 66570, "name": "STARLINK-35834", "group": "last-30-days", "lat": -34.817254053380246, "lon": 50.44210580098565, "alt_km": 340.2592210890898, "timestamp": "2025-12-02T10:50:46.053395+00:00", "meta": {"OBJECT_NAME": "STARLINK-35834", "OBJECT_ID": "2025-268P", "EPOCH": "2025-12-02T04:00:03.998880", "MEAN_MOTION": 15.78276801, "ECCENTRICITY": 0.000178, "INCLINATION": 42.9971, "RA_OF_ASC_NODE": 183.899, "ARG_OF_PERICENTER": 277.8913, "MEAN_ANOMALY": 137.0018, "EPHEMERIS_TYPE": 0, "CLASSIFICATION_TYPE": "U", "NORAD_CAT_ID": 66570, "ELEMENT_SET_NO": 999, "REV_AT_EPOCH": 297, "BSTAR": -0.010452, "MEAN_MOTION_DOT": -0.01615231, "MEAN_MOTION_DDOT": 0}, "tle": {"line1": "1 66570U 25268P   25336.16671295 -.01615231  00000+0 -10452-1 0  9996", "line2": "2 66570  42.9971 183.8990 0001780 277.8913 137.0018 15.78276801  2972"}}, "geometry": {"type": "Point", "coordinates": [50.44210580098565, -34.817254053380246]}}]}